OBJECT_NAME,OBJECT_ID,EPOCH,MEAN_MOTION,ECCENTRICITY,INCLINATION,RA_OF_ASC_NODE,ARG_OF_PERICENTER,MEAN_ANOMALY,EPHEMERIS_TYPE,CLASSIFICATION_TYPE,NORAD_CAT_ID,ELEMENT_SET_NO,REV_AT_EPOCH,BSTAR,MEAN_MOTION_DOT,MEAN_MOTION_DDOT
FLOCK 4BE-7,2024-149P,2026-07-11T18:23:39.437952,15.41356726,.00042269,97.3757,276.0611,159.1704,200.9716,0,U,60481,999,10603,.3427462E-3,.14227E-3,0
TOMORROW-S2,2024-149T,2026-07-11T18:37:47.296704,15.33108702,.00035671,97.3820,273.6882,156.8906,203.2497,0,U,60485,999,10585,.15087724E-3,.4747E-4,0
FLOCK 4BE-36,2024-149U,2026-07-11T18:13:20.426016,15.43465304,.00044644,97.3741,277.4935,160.8168,199.3249,0,U,60486,999,10614,.21991508E-3,.976E-4,0
FLOCK 4BE-25,2024-149V,2026-07-11T19:01:34.216896,15.39482396,.00035193,97.3799,276.1193,149.7719,210.3730,0,U,60487,999,10602,.22297906E-3,.8664E-4,0
FLOCK 4BE-31,2024-149W,2026-07-11T18:23:58.151328,15.45058396,.00035602,97.3802,278.4321,158.2303,201.9097,0,U,60488,999,10617,.27307254E-3,.12817E-3,0
FLOCK 4BE-20,2024-149X,2026-07-11T18:26:17.873952,15.38748408,.00047401,97.3697,274.9117,161.5503,198.5915,0,U,60489,999,10599,.22866286E-3,.8677E-4,0
FLOCK 4BE-23,2024-149Y,2026-07-11T18:21:49.362624,15.38303174,.00042453,97.3793,275.2968,164.9328,195.2044,0,U,60490,999,10597,.21763546E-3,.8134E-4,0
FLOCK 4BE-17,2024-149AA,2026-07-11T17:09:36.259200,15.40497548,.00041455,97.3773,276.2883,155.3826,204.7619,0,U,60492,999,10603,.23253259E-3,.9349E-4,0
NUSAT-50 (NANCY ROMAN),2024-149AB,2026-07-11T18:12:02.107008,15.30280412,.00047973,97.3788,273.8483,109.7842,250.3916,0,U,60493,999,10588,.19286784E-3,.5574E-4,0
FLOCK 4BE-34,2024-149AD,2026-07-11T18:09:41.765760,15.41878550,.0004513,97.3780,277.3986,170.4162,189.7172,0,U,60495,999,10611,.21967792E-3,.9242E-4,0
FLOCK 4BE-32,2024-149AF,2026-07-11T18:33:34.183584,15.43005273,.00045975,97.3718,276.9792,167.9865,192.1493,0,U,60497,999,10612,.26599874E-3,.11644E-3,0
NUSAT-48 (HENRIETTA LEAVITT),2024-149AG,2026-07-11T16:21:54.724896,15.30236606,.00044793,97.3922,274.0580,168.9688,191.1651,0,U,60498,999,10588,.17321815E-3,.4991E-4,0
NUSAT-49 (KLARA DAN VON NEUMANN),2024-149AJ,2026-07-11T18:56:26.900736,15.30346061,.00021268,97.3781,273.9113,172.2733,187.8541,0,U,60500,999,10589,.17957643E-3,.5194E-4,0
FLOCK 4BE-11,2024-149AK,2026-07-10T04:47:11.653152,15.43759592,.00045665,97.3696,275.6385,172.5870,187.5446,0,U,60501,999,10590,.31749865E-3,.14279E-3,0
YAM-7,2024-149AN,2026-07-11T17:55:52.649760,15.32151431,.00033198,97.3783,272.9007,179.0948,181.0301,0,U,60504,999,10581,.143654E-3,.4381E-4,0
FLOCK 4BE-24,2024-149AP,2026-07-09T12:51:25.814016,15.43944372,.00044967,97.3710,275.2320,186.8328,173.2860,0,U,60505,999,10581,.34635346E-3,.15684E-3,0
LUR-1,2024-149AQ,2026-07-11T18:21:42.911136,15.30417906,.00036378,97.3737,271.4189,194.1994,165.9145,0,U,60506,999,10573,.13635304E-3,.3934E-4,0
TANAGER-1,2024-149AR,2026-07-09T16:54:52.663680,15.43935842,.00027632,97.2281,284.8679,147.2432,212.8988,0,U,60507,999,10651,.7232946E-5,.245E-5,0
EAGLEEYE,2024-149AS,2026-07-11T18:47:57.164064,15.76132224,.00036033,97.3753,287.5653,184.5090,175.6143,0,U,60508,999,10680,.5580284E-3,.87498E-3,0
TRANSPORTER-11 OBJECT AU,2024-149AU,2026-07-11T00:37:26.284224,15.40895030,.0003856,97.3730,275.9465,181.4585,178.6651,0,U,60510,999,10598,.23493886E-3,.9571E-4,0
FLOCK 4BE-2,2024-149AV,2026-07-11T18:49:13.371456,15.55583523,.00051477,97.3835,280.8306,183.5442,176.5777,0,U,60511,999,10632,.61742302E-3,.42365E-3,0
